APRIZESAT 2             
1 28366U 04025A   26204.39684432  .00000207  00000+0  76955-4 0  9993
2 28366  98.1051   8.3335 0106425 140.2707 220.6338 14.38050651156843
SAUDICOMSAT 1           
1 28369U 04025D   26204.45137828  .00000273  00000+0  73722-4 0  9997
2 28369  98.5781 215.5632 0030838 272.5964  87.1702 14.55497751169402
SAUDICOMSAT 2           
1 28370U 04025E   26204.00842931  .00000216  00000+0  67208-4 0  9997
2 28370  98.6645 217.2677 0056119 150.1520 210.2893 14.49997461165290
APRIZESAT 1             
1 28372U 04025G   26204.47811049  .00000224  00000+0  67077-4 0  9999
2 28372  98.6312 216.1924 0045465  46.1049 314.3885 14.51795571167175
NANOSAT-1               
1 28493U 04049B   26204.60526067  .00000865  00000+0  12103-3 0  9997
2 28493  98.2320 342.1673 0004385 158.8063 201.3330 14.80222920160839
SAUDICOMSAT 7           
1 31119U 07012C   26204.21581249  .00000547  00000+0  10663-3 0  9995
2 31119  98.3806 179.0902 0057025  83.7265 277.0429 14.66143451 27712
SAUDICOMSAT 6           
1 31121U 07012E   26204.34914676  .00000324  00000+0  71870-4 0  9997
2 31121  98.4125 172.5449 0070915 213.3820 146.2899 14.62589327 25476
SAUDICOMSAT 5           
1 31124U 07012H   26204.47949294  .00000623  00000+0  11565-3 0  9994
2 31124  98.3517 180.0995 0047688  13.1135 347.1296 14.68200597 28920
SAUDICOMSAT 3           
1 31125U 07012J   26204.17291221  .00000646  00000+0  11370-3 0  9991
2 31125  98.3172 180.3325 0037841 299.3530  60.3898 14.70758420 30117
SAUDICOMSAT 4           
1 31127U 07012L   26204.16049593  .00000405  00000+0  83884-4 0  9998
2 31127  98.4011 177.4700 0064079 145.0291 215.5145 14.64540810 26557
APRIZESAT 4             
1 35684U 09041D   26204.19770737  .00000666  00000+0  85909-4 0  9997
2 35684  98.1397 280.2340 0042754 203.1140 156.8151 14.83922373916709
APRIZESAT 3             
1 35686U 09041F   26204.34395220  .00000488  00000+0  47569-4 0  9998
2 35686  98.2106 359.3115 0060651 308.5143  51.0647 14.96320961921786
S-NET D                 
1 43186U 18014G   26204.15093561  .00004975  00000+0  25535-3 0  9997
2 43186  97.5321 108.7180 0006294 249.6107 110.4450 15.16969037464215
S-NET B                 
1 43187U 18014H   26204.55888388  .00004990  00000+0  25628-3 0  9991
2 43187  97.5325 109.1111 0006972 242.5259 117.5266 15.16942437464276
S-NET A                 
1 43188U 18014J   26204.54539009  .00005060  00000+0  25950-3 0  9991
2 43188  97.5337 109.3133 0006866 243.2437 116.8094 15.16981596464274
S-NET C                 
1 43189U 18014K   26204.29910192  .00004606  00000+0  23685-3 0  9998
2 43189  97.5354 109.1489 0008326 236.3882 123.6557 15.16930275462788
SALSAT                  
1 46495U 20068K   26204.44213959  .00007378  00000+0  25456-3 0  9994
2 46495  97.8868 209.7289 0010091 164.5021 195.6529 15.30258663320903
OOV-CUBE (TUBSAT-30)    
1 60240U 24128F   26204.18460515  .00001732  00000+0  14199-3 0  9992
2 60240  61.9942 100.0399 0040077 141.8645 218.5295 15.02898344111520
LPNTSAT-001 (IOD-1)     
1 68408U 26065A   26204.58042434  .00002162  00000+0  10722-3 0  9994
2 68408  97.3969  84.3145 0014883 234.0629 125.9225 15.18698548 17780
CHUANG XIN 26 (CX-26)   
1 69972U 26158A   26204.47169508 -.00000188  00000+0 -11698-4 0  9996
2 69972  49.9824 245.4888 0004922 328.1437  31.9178 14.25116310  1885
